OBJECT_NAME,OBJECT_ID,EPOCH,MEAN_MOTION,ECCENTRICITY,INCLINATION,RA_OF_ASC_NODE,ARG_OF_PERICENTER,MEAN_ANOMALY,EPHEMERIS_TYPE,CLASSIFICATION_TYPE,NORAD_CAT_ID,ELEMENT_SET_NO,REV_AT_EPOCH,BSTAR,MEAN_MOTION_DOT,MEAN_MOTION_DDOT
NSS-9,2009-008A,2026-07-17T13:30:38.697696,1.00272999,.00019549,1.3385,82.3574,22.9811,215.7665,0,U,33749,999,6382,0,.62E-6,0
TELSTAR 11N,2009-009A,2026-07-17T09:40:22.502208,1.00272560,.00022742,0.0212,296.8450,170.2493,295.6573,0,U,34111,999,4654,0,-.26E-5,0
NAVSTAR 63 (USA 203),2009-014A,2026-07-16T23:15:33.439392,2.00572303,.01441665,54.4808,209.4608,61.4149,299.9932,0,U,34661,999,12688,0,.4E-6,0
WGS F2 (USA 204),2009-017A,2026-07-17T15:15:27.676800,1.00273515,.00003718,0.0152,55.8280,144.8534,21.1171,0,U,34713,999,4592,0,.58E-6,0
SES-7 (PROTOSTAR 2),2009-027A,2026-07-17T15:29:59.083008,1.00272934,.00001642,0.0145,54.1439,227.5864,354.4656,0,U,34941,999,6293,0,-.354E-5,0
MEASAT-3A,2009-032A,2026-07-17T14:02:05.049024,1.00272053,.00027433,0.0282,335.8689,131.0523,198.9867,0,U,35362,999,833,0,-.12E-5,0
EWS-G3 (GOES 14),2009-033A,2026-07-17T15:34:15.212352,1.00097014,.00020146,1.7665,82.6632,39.9059,169.9914,0,U,35491,999,689,0,-.369E-5,0
FM-5,2009-034A,2026-07-17T12:51:52.236864,1.00268994,.00008959,0.0504,254.5778,104.1827,43.3849,0,U,35493,999,4694,0,-.209E-5,0
TERRESTAR-1,2009-035A,2026-07-17T14:27:25.119648,1.00272954,.00025041,5.1944,48.7674,61.3853,291.1279,0,U,35496,999,6243,0,-.68E-6,0
COSMOS 2451,2009-036A,2026-07-17T15:36:12.763872,12.40871089,.00070599,82.4872,73.4587,136.5725,223.5911,0,U,35498,999,77142,.33715357E-3,.55E-6,0
COSMOS 2453,2009-036C,2026-07-17T14:37:00.979104,12.41520303,.00078043,82.4873,69.0029,96.6023,263.5945,0,U,35500,999,77175,.44691017E-3,.71E-6,0
DEIMOS-1,2009-041A,2026-07-17T13:44:28.858272,14.75264386,.00027915,97.7435,354.4881,89.4015,270.7514,0,U,35681,999,91136,.3042584E-5,-.27E-6,0
DUBAISAT-1,2009-041B,2026-07-17T14:42:35.551872,14.75168609,.00097204,98.0088,331.5440,340.5543,19.5293,0,U,35682,999,90958,.5849216E-4,.344E-5,0
UK-DMC 2,2009-041C,2026-07-17T14:16:53.179680,14.76094710,.00016133,97.8877,332.8245,100.2674,259.8718,0,U,35683,999,91105,.36620493E-4,.203E-5,0
APRIZESAT 4,2009-041D,2026-07-17T11:11:13.121376,14.83915547,.00423832,98.1403,274.3888,221.9877,137.8085,0,U,35684,999,91585,.47359979E-4,.34E-5,0
NANOSAT 1B,2009-041E,2026-07-17T13:55:48.629280,14.93169466,.00504627,98.1198,318.2327,65.2256,295.4201,0,U,35685,999,91895,.50180352E-4,.472E-5,0
APRIZESAT 3,2009-041F,2026-07-17T09:25:03.734976,14.96314161,.00607349,98.2104,353.0707,328.5965,31.1633,0,U,35686,999,92089,.49783455E-4,.514E-5,0
ASIASAT 5,2009-042A,2026-07-17T13:45:04.391136,1.00265888,.00014423,0.0330,79.5962,28.5188,134.1163,0,U,35696,999,6201,0,0,0
NAVSTAR 64 (USA 206),2009-043A,2026-07-17T13:14:39.878880,2.00552633,.00537,56.2293,26.2602,84.4915,285.7485,0,U,35752,999,12397,0,-.86E-6,0
JCSAT-12 (JCSAT-RA),2009-044A,2026-07-17T13:54:05.815008,1.00271216,.00009003,0.0500,262.4629,287.8616,85.6448,0,U,35755,999,6191,0,-.337E-5,0
OPTUS D3,2009-044B,2026-07-17T14:00:50.167872,1.00270614,.00032369,0.8945,268.1875,211.2815,182.2669,0,U,35756,999,6187,0,-.155E-5,0
NIMIQ 5,2009-050A,2026-07-17T09:30:23.458176,1.00270278,.00026388,0.0445,249.5097,221.6919,253.8963,0,U,35873,999,6164,0,-.266E-5,0
OCEANSAT-2,2009-051A,2026-07-17T13:56:50.960832,13.99655912,.00174952,98.2321,182.3980,146.6327,213.5946,0,U,35931,999,88358,.953646E-6,-.36E-6,0
SWISSCUBE,2009-051B,2026-07-17T11:26:53.365920,14.62533018,.00079515,98.4004,106.8899,112.9485,247.2556,0,U,35932,999,89358,.9495523E-4,.432E-5,0
BEESAT-1,2009-051C,2026-07-16T16:20:27.870432,14.61763234,.00061862,98.3932,105.6536,125.9975,234.1800,0,U,35933,999,89349,.86615002E-4,.383E-5,0
ITUPSAT1,2009-051E,2026-07-17T04:15:10.956960,14.60480346,.00082048,98.4015,105.3171,137.6090,222.5745,0,U,35935,999,89311,.79458509E-4,.337E-5,0
AMAZONAS 2,2009-054A,2026-07-17T09:30:30.947328,1.00273469,.00032571,1.8920,82.6605,29.5931,253.5775,0,U,35942,999,6148,0,-.27E-5,0
COMSATBW-1,2009-054B,2026-07-17T15:56:02.010624,1.00270712,.00027455,0.0645,164.9027,311.8331,120.7536,0,U,35943,999,6161,0,.16E-6,0
WORLDVIEW-2 (WV-2),2009-055A,2026-07-17T13:44:51.543456,14.37907319,.00053996,98.4755,271.6088,124.1243,236.0457,0,U,35946,999,88001,.28497986E-4,.42E-6,0
DMSP 5D-3 F18 (USA 210),2009-057A,2026-07-17T14:52:05.169792,14.14912689,.00113752,98.9058,179.3257,158.7640,201.4007,0,U,35951,999,86389,.10590811E-3,.16E-5,0
NSS-12,2009-058A,2026-07-17T15:15:20.189376,1.00271674,.00049007,0.0860,269.3666,170.5737,141.3247,0,U,36032,999,6122,0,.62E-6,0
THOR 6,2009-058B,2026-07-17T14:58:52.105152,1.00271726,.00016958,0.0183,99.8883,18.3921,41.0189,0,U,36033,999,6131,0,-.19E-6,0
SMOS,2009-059A,2026-07-17T11:45:20.232000,14.39736723,.00011683,98.4430,25.3807,98.2686,261.8635,0,U,36036,999,87781,.45220457E-4,.98E-6,0
PROBA-2,2009-059B,2026-07-17T12:02:20.157216,14.54874149,.00131733,98.2461,21.4357,181.5534,178.5625,0,U,36037,999,88593,.22894701E-4,.53E-6,0
POISK,2009-060A,2026-07-17T13:44:50.076384,15.49033131,.0006795,51.6316,149.7201,306.9083,53.1282,0,U,36086,999,57530,.72723697E-4,.3563E-4,0
SJ-11-01,2009-061A,2026-07-17T15:01:38.972928,14.63713192,.00095465,98.0069,178.7521,291.0648,198.8056,0,U,36088,999,88894,.70362132E-4,.32E-5,0
COSMOS 2455,2009-063A,2026-07-17T08:33:24.247296,13.97053145,.00036361,67.1460,179.5274,283.6767,76.3913,0,U,36095,999,84934,.10964483E-4,-.6E-6,0
INTELSAT 14 (IS-14),2009-064A,2026-07-17T13:56:06.218592,1.00270040,.00024259,0.0172,42.8362,74.7534,341.8399,0,U,36097,999,6091,0,0,0
EUTELSAT 36B,2009-065A,2026-07-17T15:13:27.869376,1.00269121,.00055911,0.5657,81.3291,32.2919,100.6870,0,U,36101,999,6101,0,.103E-5,0
INTELSAT 15 (IS-15),2009-067A,2026-07-17T15:23:19.423392,1.00270400,.00022618,0.0203,46.9456,68.7098,135.7866,0,U,36106,999,4153,0,0,0
WGS F3 (USA 211),2009-068A,2026-07-17T14:22:03.135360,1.00271133,.00005935,0.2966,85.6659,92.0364,203.2232,0,U,36108,999,4689,0,.55E-6,0
YAOGAN-7,2009-069A,2026-07-17T03:31:43.612320,14.78036478,.00233912,98.0030,83.8237,304.7704,55.1305,0,U,36110,999,89405,.33466736E-4,.189E-5,0
COSMOS 2456 [GLONASS-M],2009-070A,2026-07-16T04:16:30.382752,2.13103565,.0003619,65.0282,69.9837,341.3386,195.9451,0,U,36111,999,12904,0,-.16E-6,0
COSMOS 2457 [GLONASS-M],2009-070B,2026-07-13T04:41:57.056928,2.13101172,.0004075,65.0120,69.9289,121.6619,54.8410,0,U,36112,999,12898,0,-.12E-6,0
YAOGAN-8,2009-072A,2026-07-16T15:02:12.077952,13.05081555,.0020324,100.2128,80.5748,257.8641,102.0189,0,U,36121,999,79251,-.11909E-2,-.428E-5,0
XIWANG-1 (HOPE-1),2009-072B,2026-07-17T13:37:14.507328,13.16437653,.00075889,100.4042,151.9169,159.5399,200.6019,0,U,36122,999,79700,-.13502394E-2,-.56E-5,0
DIRECTV 12,2009-075A,2026-07-17T14:29:47.392800,1.00272808,.0000254,0.0447,222.1598,342.1549,205.8215,0,U,36131,999,4685,0,-.113E-5,0
BEIDOU-2 G1,2010-001A,2026-07-17T13:56:28.087296,1.00271145,.0001876,4.3633,60.3036,287.4685,297.1997,0,U,36287,999,6047,0,-.291E-5,0
SDO,2010-005A,2026-07-17T05:45:45.515232,1.00277241,.00017897,34.7122,85.8846,45.4972,147.9067,0,U,36395,999,6036,0,-.96E-6,0
INTELSAT 16 (IS-16),2010-006A,2026-07-17T13:26:07.754208,1.00271953,.00023266,0.0162,59.1351,76.6378,284.9205,0,U,36397,999,5995,0,-.254E-5,0
COSMOS 2460 [GLONASS-M],2010-007C,2026-07-17T04:30:51.853824,2.13101529,.00018623,65.4015,313.4518,145.0580,216.1345,0,U,36402,999,12737,0,-.66E-6,0
EWS-G2 (GOES 15),2010-008A,2026-07-17T15:56:02.033088,1.00268908,.00053303,1.3597,82.4311,54.3620,100.9749,0,U,36411,999,5994,0,.13E-6,0
YAOGAN-9 01A,2010-009A,2026-07-16T15:02:29.884128,13.45704320,.05398328,63.3647,282.0328,21.9660,340.3582,0,U,36413,999,80393,.26929027E-4,-.54E-6,0
YAOGAN-9 01B,2010-009B,2026-07-16T14:33:09.350208,13.45712516,.0540653,63.3659,281.7252,21.1238,341.1215,0,U,36414,999,80370,.17164339E-4,-.68E-6,0
YAOGAN-9 01C,2010-009C,2026-07-17T11:54:42.299424,13.45714133,.05413951,63.3654,279.9312,21.4654,340.8161,0,U,36415,999,80398,.24575071E-4,-.57E-6,0
ECHOSTAR 14,2010-010A,2026-07-17T14:25:10.335648,1.00272006,.00019519,0.0423,239.0658,220.3998,293.3225,0,U,36499,999,4685,0,-.9E-7,0
CRYOSAT 2,2010-013A,2026-07-17T14:42:56.282688,14.51898901,.00024242,92.0358,284.6984,98.8362,261.3120,0,U,36508,999,86249,.23811878E-4,.99E-6,0
SES-1,2010-016A,2026-07-17T14:30:17.345088,1.00271849,.00024698,0.0580,270.6177,200.9475,300.4190,0,U,36516,999,5933,0,-.124E-5,0
COSMOS 2463,2010-017A,2026-07-17T02:18:20.860992,13.71667279,.00372112,82.9580,227.7304,48.7838,5.0370,0,U,36519,999,81203,.12099001E-4,.26E-6,0
ASTRA 3B,2010-021A,2026-07-17T15:05:43.947168,1.00271265,.00043455,1.5453,83.1824,23.6297,78.5537,0,U,36581,999,5917,0,.127E-5,0
COMSATBW-2,2010-021B,2026-07-17T15:02:51.721728,1.00267999,.00021895,0.0439,176.7281,307.4946,50.1650,0,U,36582,999,5926,0,.79E-6,0
NAVSTAR 65 (USA 213),2010-022A,2026-07-15T08:58:33.645792,2.00563746,.01267238,54.2685,207.4265,66.1541,291.5416,0,U,36585,999,11815,0,.49E-6,0
SERVIS 2,2010-023A,2026-07-17T11:10:24.113568,13.16055122,.00170359,100.4285,25.7310,203.7285,185.7377,0,U,36588,999,77475,.40656307E-4,-.29E-6,0
BEIDOU-2 G3,2010-024A,2026-07-17T15:54:14.783904,1.00268178,.00069336,4.5862,61.3777,359.4788,192.7110,0,U,36590,999,5907,0,-.144E-5,0
BADR-5,2010-025A,2026-07-17T15:07:43.756320,1.00271988,.00052529,0.0543,112.8991,82.3686,357.5579,0,U,36592,999,5352,0,.144E-5,0
SJ-12,2010-027A,2026-07-17T14:27:59.522400,15.16981334,.00063461,97.7614,217.0205,8.6485,351.4856,0,U,36596,999,87947,.13057473E-3,.2508E-4,0
TANDEM-X,2010-030A,2026-07-07T11:29:58.986816,15.19154052,.0001887,97.4457,195.8973,94.3019,265.8431,0,U,36605,999,88972,.21566E-4,.386E-5,0
COMS 1,2010-032A,2026-07-17T11:20:22.901856,0.99167397,.00112882,4.8812,74.9910,15.0272,328.3763,0,U,36744,999,5138,0,-.24E-5,0
ARABSAT-5A,2010-032B,2026-07-17T11:42:28.283904,1.00275341,.00057306,0.1162,67.4955,57.7533,16.2034,0,U,36745,999,5895,0,.144E-5,0
